OBJECT_NAME,OBJECT_ID,EPOCH,MEAN_MOTION,ECCENTRICITY,INCLINATION,RA_OF_ASC_NODE,ARG_OF_PERICENTER,MEAN_ANOMALY,EPHEMERIS_TYPE,CLASSIFICATION_TYPE,NORAD_CAT_ID,ELEMENT_SET_NO,REV_AT_EPOCH,BSTAR,MEAN_MOTION_DOT,MEAN_MOTION_DDOT
IRIDIUM 116,2017-083C,2026-07-10T17:26:50.591616,14.34220153,.00024044,86.3983,312.1606,99.2562,260.8905,0,U,43072,999,44754,.45419915E-4,.147E-5,0
IRIDIUM 130,2017-083D,2026-07-11T19:28:39.374976,14.34217058,.0002181,86.3992,311.9851,100.5131,259.6311,0,U,43073,999,44764,.37408E-4,.125E-5,0
IRIDIUM 151,2017-083E,2026-07-11T20:32:35.236896,14.34217398,.0002222,86.3986,311.7470,95.4202,264.7248,0,U,43074,999,44767,.44824E-4,.145E-5,0
IRIDIUM 134,2017-083F,2026-07-11T19:46:55.218144,14.34217869,.000219,86.3986,311.7687,95.5619,264.5826,0,U,43075,999,44763,.36404E-4,.122E-5,0
IRIDIUM 137,2017-083G,2026-07-11T20:05:11.343840,14.34217757,.0002653,86.3988,311.8567,94.9609,265.1889,0,U,43076,999,44770,.36342E-4,.122E-5,0
IRIDIUM 144,2018-030A,2026-07-11T18:56:19.434048,14.34217726,.0002362,86.3958,280.1143,98.7298,261.4165,0,U,43249,999,43366,.14464E-4,.6E-6,0
IRIDIUM 149,2018-030B,2026-07-11T19:05:27.458880,14.34217703,.0002245,86.3958,280.0784,93.5100,266.6353,0,U,43250,999,43368,.36495E-4,.122E-5,0
IRIDIUM 140,2018-030D,2026-07-11T18:19:47.570592,14.34216721,.0002217,86.3961,280.1580,95.1539,264.9910,0,U,43252,999,43371,.39616E-4,.131E-5,0
IRIDIUM 145,2018-030E,2026-07-11T18:01:31.266048,14.34216915,.0002446,86.3959,280.1352,100.8525,259.2946,0,U,43253,999,43364,.41385E-4,.136E-5,0
IRIDIUM 146,2018-030F,2026-07-11T17:34:07.372128,14.34217028,.0002239,86.3959,280.1556,97.4767,262.6683,0,U,43254,999,43365,-.91209E-5,-.6E-7,0
IRIDIUM 148,2018-030G,2026-07-11T18:28:55.684416,14.34217223,.0002343,86.3962,280.1830,94.4496,265.6967,0,U,43255,999,43369,.45483E-4,.147E-5,0
IRIDIUM 142,2018-030H,2026-07-11T17:43:15.472992,14.34217876,.0002392,86.3956,280.0846,98.2818,261.8650,0,U,43256,999,43365,.40784E-4,.134E-5,0
IRIDIUM 150,2018-030J,2026-07-10T04:07:18.893280,14.34219143,.00022151,86.3963,280.8566,95.9860,264.1588,0,U,43257,999,43345,-.94435944E-4,-.245E-5,0
IRIDIUM 143,2018-030K,2026-07-11T18:10:39.454176,14.34217364,.0002304,86.3961,280.2872,96.1065,264.0394,0,U,43258,999,43361,.24945E-4,.9E-6,0
IRIDIUM 161,2018-047C,2026-07-11T03:46:43.203072,14.43284936,.00023067,86.4467,78.4474,78.8180,281.3280,0,U,43478,999,42859,.45078032E-4,.172E-5,0
IRIDIUM 152,2018-047D,2026-07-11T17:31:22.670400,14.34219297,.0002144,86.3940,78.0692,82.5322,277.6118,0,U,43479,999,42600,.42316E-4,.138E-5,0
IRIDIUM 147,2018-047E,2026-07-11T19:20:58.137216,14.34217174,.0002275,86.3941,78.0429,88.4643,271.6813,0,U,43480,999,42601,.45287E-4,.147E-5,0
IRIDIUM 110,2018-047F,2026-07-11T17:49:38.332128,14.34217614,.0002184,86.3945,78.1621,76.5323,283.6116,0,U,43481,999,42599,.39654E-4,.131E-5,0
IRIDIUM 162,2018-047G,2026-07-10T02:40:06.655296,14.43283456,.00021871,86.4467,78.7759,84.2783,275.8667,0,U,43482,999,42843,.50126108E-4,.189E-5,0
IRIDIUM 160,2018-061A,2026-07-11T16:31:38.235936,14.34217808,.0002401,86.3942,46.5492,82.4772,277.6696,0,U,43569,999,41688,.312E-4,.107E-5,0
IRIDIUM 166,2018-061B,2026-07-11T12:06:46.347840,14.34217869,.00022602,86.3940,46.5761,89.6407,270.5047,0,U,43570,999,41688,.3931712E-5,.31E-6,0
IRIDIUM 158,2018-061C,2026-07-11T16:22:30.470304,14.34217211,.0002068,86.3940,46.5116,86.2122,273.9310,0,U,43571,999,41687,.76329E-5,.41E-6,0
IRIDIUM 165,2018-061D,2026-07-11T15:18:34.411392,14.34217370,.0002258,86.3941,46.5772,90.4212,269.7243,0,U,43572,999,41689,.44895E-4,.146E-5,0
IRIDIUM 155,2018-061E,2026-07-11T16:04:14.409408,14.34216791,.0001944,86.3934,46.4314,87.8825,272.2593,0,U,43573,999,41686,.97098E-6,.22E-6,0
IRIDIUM 154,2018-061F,2026-07-11T15:36:50.395392,14.34217635,.0002317,86.3942,46.5747,89.8976,270.2485,0,U,43574,999,41691,.54311E-4,.172E-5,0
IRIDIUM 163,2018-061G,2026-07-11T15:09:26.400384,14.34217605,.0002172,86.3938,46.4971,85.0745,275.0699,0,U,43575,999,41688,.43043E-4,.14E-5,0
